[{"OBJECT_NAME":"STARLINK-3059","OBJECT_ID":"2021-082BD","EPOCH":"2026-03-09T22:26:33.514368","MEAN_MOTION":14.98326436,"ECCENTRICITY":0.00023522,"INCLINATION":69.9989,"RA_OF_ASC_NODE":293.8388,"ARG_OF_PERICENTER":266.3981,"MEAN_ANOMALY":93.6909,"EPHEMERIS_TYPE":0,"CLASSIFICATION_TYPE":"U","NORAD_CAT_ID":49181,"ELEMENT_SET_NO":999,"REV_AT_EPOCH":24720,"BSTAR":-0.00010428634,"MEAN_MOTION_DOT":-1.337e-5,"MEAN_MOTION_DDOT":0},{"OBJECT_NAME":"CENTAURI-8","OBJECT_ID":"2025-009DK","EPOCH":"2026-03-09T17:25:58.526112","MEAN_MOTION":14.9722833,"ECCENTRICITY":0.00030201,"INCLINATION":97.7096,"RA_OF_ASC_NODE":150.1876,"ARG_OF_PERICENTER":109.5881,"MEAN_ANOMALY":250.5667,"EPHEMERIS_TYPE":0,"CLASSIFICATION_TYPE":"U","NORAD_CAT_ID":62714,"ELEMENT_SET_NO":999,"REV_AT_EPOCH":6259,"BSTAR":0.00038891127,"MEAN_MOTION_DOT":4.445e-5,"MEAN_MOTION_DDOT":0}]
